SBSS (USA 216)          
1 37168U 10048A   26068.88624904  .00004946  00000+0  24191-3 0  9993
2 37168  97.7474 312.3885 0082264 184.8326 306.5835 15.15724210837421
STARLINK-6129           
1 57116U 23090R   26068.56469091 -.00000348  00000+0 -10672-4 0  9992
2 57116  43.0033 275.4111 0001149 271.2361  88.8350 15.02533295150398
